[{"OBJECT_NAME":"STARLINK-30465","OBJECT_ID":"2023-146A","EPOCH":"2026-03-09T22:00:01.999584","MEAN_MOTION":15.13557051,"ECCENTRICITY":0.00022159,"INCLINATION":42.9994,"RA_OF_ASC_NODE":312.1273,"ARG_OF_PERICENTER":234.1566,"MEAN_ANOMALY":2.2528,"EPHEMERIS_TYPE":0,"CLASSIFICATION_TYPE":"U","NORAD_CAT_ID":57891,"ELEMENT_SET_NO":999,"REV_AT_EPOCH":573,"BSTAR":0.085569152,"MEAN_MOTION_DOT":0.01709853,"MEAN_MOTION_DDOT":0},{"OBJECT_NAME":"FLOCK 4Q-31","OBJECT_ID":"2023-174AF","EPOCH":"2026-03-09T18:16:50.892960","MEAN_MOTION":15.50423428,"ECCENTRICITY":0.00077968,"INCLINATION":97.3938,"RA_OF_ASC_NODE":157.7607,"ARG_OF_PERICENTER":152.0999,"MEAN_ANOMALY":208.0672,"EPHEMERIS_TYPE":0,"CLASSIFICATION_TYPE":"U","NORAD_CAT_ID":58285,"ELEMENT_SET_NO":999,"REV_AT_EPOCH":13034,"BSTAR":0.00063040896,"MEAN_MOTION_DOT":0.00035916,"MEAN_MOTION_DDOT":0}]
